OKEAN-3                 
1 21397U 91039A   25309.82233900  .00004822  00000+0  34877-3 0  9997
2 21397  82.5147  96.7681 0015356  35.8698 324.3556 15.03732537846414
COSMOS 2151             
1 21422U 91042A   25309.92356034  .00002947  00000+0  23765-3 0  9995
2 21422  82.4994 202.9711 0013967 113.4558 246.8136 14.99483047844649
SL-14 R/B               
1 21423U 91042B   25309.50483646  .00000503  00000+0  60923-4 0  9994
2 21423  82.4929 336.6447 0015561 291.2009  68.7542 14.81687262834688
ERS-1                   
1 21574U 91050A   25309.47628700  .00000386  00000+0  13854-3 0  9997
2 21574  98.7928 319.5950 0031476 209.1004 150.8430 14.39320047797864
ARIANE 40 R/B           
1 21610U 91050F   25309.61456083  .00000421  00000+0  13905-3 0  9994
2 21610  98.2220   1.3756 0004385  92.2237 267.9456 14.42763636801103
INTERCOSMOS 25          
1 21819U 91086A   25309.72951827  .00001349  00000+0  26079-3 0  9998
2 21819  82.6089  24.9434 1488705  24.1611 342.2501 12.11565966481675
SL-8 R/B                
1 21876U 92008B   25309.61163167  .00000126  00000+0  11309-3 0  9998
2 21876  82.9294   0.0617 0035990 120.3115  32.0214 13.75947581692350
SL-8 R/B                
1 21938U 92020B   25309.80749840  .00000055  00000+0  41162-4 0  9992
2 21938  82.9301 245.7407 0027684 284.8124  94.1123 13.75520306684104
USA 81                  
1 21949U 92023A   25309.65882948  .00000241  00000+0  81770-4 0  9993
2 21949  85.0116 202.9554 0002750  82.2210 277.9294 14.32305967 77031
COSMOS 2219             
1 22219U 92076A   25309.94021081  .00000291  00000+0  17725-3 0  9990
2 22219  71.0601 276.7550 0017211  22.4950 337.6923 14.14061914700886
SL-16 R/B               
1 22220U 92076B   25309.81406383  .00000264  00000+0  15572-3 0  9998
2 22220  70.9989  89.3112 0015065 281.9990 246.7399 14.16832565704283
COSMOS 2221             
1 22236U 92080A   25309.68716875  .00002415  00000+0  21536-3 0  9992
2 22236  82.5073  37.7776 0013295 246.5599 113.4226 14.95534929762251
