CCSDS_OMM_VERS = 2.0
CREATION_DATE  = 
ORIGINATOR     = 

OBJECT_NAME    = OKEAN-3
OBJECT_ID      = 1991-039A
CENTER_NAME    = EARTH
REF_FRAME      = TEME
TIME_SYSTEM    = UTC
MEAN_ELEMENT_THEORY = SGP/SGP4

EPOCH          = 2025-11-05T19:44:10.089600
MEAN_MOTION    = 15.03732537
ECCENTRICITY   = .00153566
INCLINATION    = 82.5147
RA_OF_ASC_NODE = 96.7681
ARG_OF_PERICENTER = 35.8698
MEAN_ANOMALY   = 324.3556

EPHEMERIS_TYPE = 0
CLASSIFICATION_TYPE = U
NORAD_CAT_ID   = 21397
ELEMENT_SET_NO = 999
REV_AT_EPOCH   = 84641
BSTAR          = .34877175E-3
MEAN_MOTION_DOT = .4822E-4
MEAN_MOTION_DDOT = 0

CCSDS_OMM_VERS = 2.0
CREATION_DATE  = 
ORIGINATOR     = 

OBJECT_NAME    = COSMOS 2151
OBJECT_ID      = 1991-042A
CENTER_NAME    = EARTH
REF_FRAME      = TEME
TIME_SYSTEM    = UTC
MEAN_ELEMENT_THEORY = SGP/SGP4

EPOCH          = 2025-11-05T22:09:55.613376
MEAN_MOTION    = 14.99483047
ECCENTRICITY   = .00139679
INCLINATION    = 82.4994
RA_OF_ASC_NODE = 202.9711
ARG_OF_PERICENTER = 113.4558
MEAN_ANOMALY   = 246.8136

EPHEMERIS_TYPE = 0
CLASSIFICATION_TYPE = U
NORAD_CAT_ID   = 21422
ELEMENT_SET_NO = 999
REV_AT_EPOCH   = 84464
BSTAR          = .23764961E-3
MEAN_MOTION_DOT = .2947E-4
MEAN_MOTION_DDOT = 0

CCSDS_OMM_VERS = 2.0
CREATION_DATE  = 
ORIGINATOR     = 

OBJECT_NAME    = SL-14 R/B
OBJECT_ID      = 1991-042B
CENTER_NAME    = EARTH
REF_FRAME      = TEME
TIME_SYSTEM    = UTC
MEAN_ELEMENT_THEORY = SGP/SGP4

EPOCH          = 2025-11-05T12:06:57.870144
MEAN_MOTION    = 14.81687262
ECCENTRICITY   = .00155611
INCLINATION    = 82.4929
RA_OF_ASC_NODE = 336.6447
ARG_OF_PERICENTER = 291.2009
MEAN_ANOMALY   = 68.7542

EPHEMERIS_TYPE = 0
CLASSIFICATION_TYPE = U
NORAD_CAT_ID   = 21423
ELEMENT_SET_NO = 999
REV_AT_EPOCH   = 83468
BSTAR          = .60923211E-4
MEAN_MOTION_DOT = .503E-5
MEAN_MOTION_DDOT = 0

CCSDS_OMM_VERS = 2.0
CREATION_DATE  = 
ORIGINATOR     = 

OBJECT_NAME    = ERS-1
OBJECT_ID      = 1991-050A
CENTER_NAME    = EARTH
REF_FRAME      = TEME
TIME_SYSTEM    = UTC
MEAN_ELEMENT_THEORY = SGP/SGP4

EPOCH          = 2025-11-05T11:25:51.196800
MEAN_MOTION    = 14.39320047
ECCENTRICITY   = .00314767
INCLINATION    = 98.7928
RA_OF_ASC_NODE = 319.5950
ARG_OF_PERICENTER = 209.1004
MEAN_ANOMALY   = 150.8430

EPHEMERIS_TYPE = 0
CLASSIFICATION_TYPE = U
NORAD_CAT_ID   = 21574
ELEMENT_SET_NO = 999
REV_AT_EPOCH   = 79786
BSTAR          = .13853875E-3
MEAN_MOTION_DOT = .386E-5
MEAN_MOTION_DDOT = 0

CCSDS_OMM_VERS = 2.0
CREATION_DATE  = 
ORIGINATOR     = 

OBJECT_NAME    = ARIANE 40 R/B
OBJECT_ID      = 1991-050F
CENTER_NAME    = EARTH
REF_FRAME      = TEME
TIME_SYSTEM    = UTC
MEAN_ELEMENT_THEORY = SGP/SGP4

EPOCH          = 2025-11-05T14:44:58.055712
MEAN_MOTION    = 14.42763636
ECCENTRICITY   = .00043856
INCLINATION    = 98.2220
RA_OF_ASC_NODE = 1.3756
ARG_OF_PERICENTER = 92.2237
MEAN_ANOMALY   = 267.9456

EPHEMERIS_TYPE = 0
CLASSIFICATION_TYPE = U
NORAD_CAT_ID   = 21610
ELEMENT_SET_NO = 999
REV_AT_EPOCH   = 80110
BSTAR          = .13905252E-3
MEAN_MOTION_DOT = .421E-5
MEAN_MOTION_DDOT = 0

CCSDS_OMM_VERS = 2.0
CREATION_DATE  = 
ORIGINATOR     = 

OBJECT_NAME    = INTERCOSMOS 25
OBJECT_ID      = 1991-086A
CENTER_NAME    = EARTH
REF_FRAME      = TEME
TIME_SYSTEM    = UTC
MEAN_ELEMENT_THEORY = SGP/SGP4

EPOCH          = 2025-11-05T17:30:30.378528
MEAN_MOTION    = 12.11565966
ECCENTRICITY   = .14887052
INCLINATION    = 82.6089
RA_OF_ASC_NODE = 24.9434
ARG_OF_PERICENTER = 24.1611
MEAN_ANOMALY   = 342.2501

EPHEMERIS_TYPE = 0
CLASSIFICATION_TYPE = U
NORAD_CAT_ID   = 21819
ELEMENT_SET_NO = 999
REV_AT_EPOCH   = 48167
BSTAR          = .26079012E-3
MEAN_MOTION_DOT = .1349E-4
MEAN_MOTION_DDOT = 0

CCSDS_OMM_VERS = 2.0
CREATION_DATE  = 
ORIGINATOR     = 

OBJECT_NAME    = SL-8 R/B
OBJECT_ID      = 1992-008B
CENTER_NAME    = EARTH
REF_FRAME      = TEME
TIME_SYSTEM    = UTC
MEAN_ELEMENT_THEORY = SGP/SGP4

EPOCH          = 2025-11-05T14:40:44.976288
MEAN_MOTION    = 13.75947581
ECCENTRICITY   = .00359904
INCLINATION    = 82.9294
RA_OF_ASC_NODE = 0.0617
ARG_OF_PERICENTER = 120.3115
MEAN_ANOMALY   = 32.0214

EPHEMERIS_TYPE = 0
CLASSIFICATION_TYPE = U
NORAD_CAT_ID   = 21876
ELEMENT_SET_NO = 999
REV_AT_EPOCH   = 69235
BSTAR          = .11309052E-3
MEAN_MOTION_DOT = .126E-5
MEAN_MOTION_DDOT = 0

CCSDS_OMM_VERS = 2.0
CREATION_DATE  = 
ORIGINATOR     = 

OBJECT_NAME    = SL-8 R/B
OBJECT_ID      = 1992-020B
CENTER_NAME    = EARTH
REF_FRAME      = TEME
TIME_SYSTEM    = UTC
MEAN_ELEMENT_THEORY = SGP/SGP4

EPOCH          = 2025-11-05T19:22:47.861760
MEAN_MOTION    = 13.75520306
ECCENTRICITY   = .00276843
INCLINATION    = 82.9301
RA_OF_ASC_NODE = 245.7407
ARG_OF_PERICENTER = 284.8124
MEAN_ANOMALY   = 94.1123

EPHEMERIS_TYPE = 0
CLASSIFICATION_TYPE = U
NORAD_CAT_ID   = 21938
ELEMENT_SET_NO = 999
REV_AT_EPOCH   = 68410
BSTAR          = .41162462E-4
MEAN_MOTION_DOT = .55E-6
MEAN_MOTION_DDOT = 0

CCSDS_OMM_VERS = 2.0
CREATION_DATE  = 
ORIGINATOR     = 

OBJECT_NAME    = USA 81
OBJECT_ID      = 1992-023A
CENTER_NAME    = EARTH
REF_FRAME      = TEME
TIME_SYSTEM    = UTC
MEAN_ELEMENT_THEORY = SGP/SGP4

EPOCH          = 2025-11-05T15:48:42.867072
MEAN_MOTION    = 14.32305967
ECCENTRICITY   = .00027509
INCLINATION    = 85.0116
RA_OF_ASC_NODE = 202.9554
ARG_OF_PERICENTER = 82.2210
MEAN_ANOMALY   = 277.9294

EPHEMERIS_TYPE = 0
CLASSIFICATION_TYPE = U
NORAD_CAT_ID   = 21949
ELEMENT_SET_NO = 999
REV_AT_EPOCH   = 7703
BSTAR          = .81770202E-4
MEAN_MOTION_DOT = .241E-5
MEAN_MOTION_DDOT = 0

CCSDS_OMM_VERS = 2.0
CREATION_DATE  = 
ORIGINATOR     = 

OBJECT_NAME    = COSMOS 2219
OBJECT_ID      = 1992-076A
CENTER_NAME    = EARTH
REF_FRAME      = TEME
TIME_SYSTEM    = UTC
MEAN_ELEMENT_THEORY = SGP/SGP4

EPOCH          = 2025-11-05T22:33:54.213984
MEAN_MOTION    = 14.14061914
ECCENTRICITY   = .0017211
INCLINATION    = 71.0601
RA_OF_ASC_NODE = 276.7550
ARG_OF_PERICENTER = 22.4950
MEAN_ANOMALY   = 337.6923

EPHEMERIS_TYPE = 0
CLASSIFICATION_TYPE = U
NORAD_CAT_ID   = 22219
ELEMENT_SET_NO = 999
REV_AT_EPOCH   = 70088
BSTAR          = .17724803E-3
MEAN_MOTION_DOT = .291E-5
MEAN_MOTION_DDOT = 0

CCSDS_OMM_VERS = 2.0
CREATION_DATE  = 
ORIGINATOR     = 

OBJECT_NAME    = SL-16 R/B
OBJECT_ID      = 1992-076B
CENTER_NAME    = EARTH
REF_FRAME      = TEME
TIME_SYSTEM    = UTC
MEAN_ELEMENT_THEORY = SGP/SGP4

EPOCH          = 2025-11-05T19:32:15.114912
MEAN_MOTION    = 14.16832565
ECCENTRICITY   = .00150652
INCLINATION    = 70.9989
RA_OF_ASC_NODE = 89.3112
ARG_OF_PERICENTER = 281.9990
MEAN_ANOMALY   = 246.7399

EPHEMERIS_TYPE = 0
CLASSIFICATION_TYPE = U
NORAD_CAT_ID   = 22220
ELEMENT_SET_NO = 999
REV_AT_EPOCH   = 70428
BSTAR          = .15571678E-3
MEAN_MOTION_DOT = .264E-5
MEAN_MOTION_DDOT = 0

CCSDS_OMM_VERS = 2.0
CREATION_DATE  = 
ORIGINATOR     = 

OBJECT_NAME    = COSMOS 2221
OBJECT_ID      = 1992-080A
CENTER_NAME    = EARTH
REF_FRAME      = TEME
TIME_SYSTEM    = UTC
MEAN_ELEMENT_THEORY = SGP/SGP4

EPOCH          = 2025-11-05T16:29:31.380000
MEAN_MOTION    = 14.95534929
ECCENTRICITY   = .00132954
INCLINATION    = 82.5073
RA_OF_ASC_NODE = 37.7776
ARG_OF_PERICENTER = 246.5599
MEAN_ANOMALY   = 113.4226

EPHEMERIS_TYPE = 0
CLASSIFICATION_TYPE = U
NORAD_CAT_ID   = 22236
ELEMENT_SET_NO = 999
REV_AT_EPOCH   = 76225
BSTAR          = .21536249E-3
MEAN_MOTION_DOT = .2415E-4
MEAN_MOTION_DDOT = 0

